[{"OBJECT_NAME":"STARLINK-34669","OBJECT_ID":"2025-150X","EPOCH":"2026-03-09T13:53:08.837664","MEAN_MOTION":14.98326295,"ECCENTRICITY":0.0004017,"INCLINATION":70.002,"RA_OF_ASC_NODE":134.5952,"ARG_OF_PERICENTER":268.7258,"MEAN_ANOMALY":91.3441,"EPHEMERIS_TYPE":0,"CLASSIFICATION_TYPE":"U","NORAD_CAT_ID":64811,"ELEMENT_SET_NO":999,"REV_AT_EPOCH":3650,"BSTAR":1.7258e-6,"MEAN_MOTION_DOT":-7.3e-7,"MEAN_MOTION_DDOT":0},{"OBJECT_NAME":"FENGYUN 1C DEB","OBJECT_ID":"1999-025AZA","EPOCH":"2026-03-09T00:58:11.092224","MEAN_MOTION":14.92309795,"ECCENTRICITY":0.00550776,"INCLINATION":98.9912,"RA_OF_ASC_NODE":286.2715,"ARG_OF_PERICENTER":182.0101,"MEAN_ANOMALY":178.0901,"EPHEMERIS_TYPE":0,"CLASSIFICATION_TYPE":"U","NORAD_CAT_ID":30912,"ELEMENT_SET_NO":999,"REV_AT_EPOCH":687,"BSTAR":0.0018683847,"MEAN_MOTION_DOT":0.00019628,"MEAN_MOTION_DDOT":0}]
